NORAD_CAT_ID,OBJECT_NAME,OBJECT_TYPE,EPOCH,MEAN_MOTION,ECCENTRICITY,INCLINATION,RA_OF_ASC_NODE,ARG_OF_PERICENTER,MEAN_ANOMALY,BSTAR,MEAN_MOTION_DOT,MEAN_MOTION_DDOT,TLE_LINE0,TLE_LINE1,TLE_LINE2,SEMIMAJOR_AXIS,PERIOD,APOGEE,PERIGEE,DECAYED
53388.0,STARLINK-4522,PAYLOAD,2024-04-02 20:51:40,15.08834714,2.39e-05,53.2189,52.6716,99.7449,260.357,7.1491e-05,8.5e-06,0.0,0 STARLINK-4522,1 53388U 22097A   24093.86922410  .00000850  00000-0  71491-4 0  9996,2 53388  53.2189  52.6716 0000239  99.7449 260.3570 15.08834714 91464,6917.897,95.438,539.927,539.596,0.0
53388.0,STARLINK-4522,PAYLOAD,2024-04-03 14:20:55,15.0884553,0.0001291,53.2179,49.4004,97.668,262.4459,0.00018312,2.628e-05,0.0,0 STARLINK-4522,1 53388U 22097A   24094.59786411  .00002628  00000-0  18312-3 0  9993,2 53388  53.2179  49.4004 0001291  97.6680 262.4459 15.08845530 92402,6917.863,95.437,540.622,538.835,0.0
53388.0,STARLINK-4522,PAYLOAD,2024-04-03 20:42:28,15.08841832,0.0001525,53.2176,48.2116,76.9455,283.1707,0.00041524,6.327e-05,0.0,0 STARLINK-4522,1 53388U 22097A   24094.86282941  .00006327  00000-0  41524-3 0  9993,2 53388  53.2176  48.2116 0001525  76.9455 283.1707 15.08841832 92441,6917.875,95.437,540.795,538.685,0.0
53388.0,STARLINK-4522,PAYLOAD,2024-04-04 03:04:01,15.08842533,0.0001542,53.2179,47.0223,77.199,282.9175,0.0003598,5.443e-05,0.0,0 STARLINK-4522,1 53388U 22097A   24095.12779018  .00005443  00000-0  35980-3 0  9996,2 53388  53.2179  47.0223 0001542  77.1990 282.9175 15.08842533 91653,6917.873,95.437,540.804,538.671,0.0
53388.0,STARLINK-4522,PAYLOAD,2024-04-04 14:11:42,15.08849318,0.0001548,53.2183,44.9408,77.0341,283.0824,0.00038643,5.869e-05,0.0,0 STARLINK-4522,1 53388U 22097A   24095.59146743  .00005869  00000-0  38643-3 0  9991,2 53388  53.2183  44.9408 0001548  77.0341 283.0824 15.08849318 92555,6917.852,95.437,540.788,538.646,0.0
53388.0,STARLINK-4522,PAYLOAD,2024-04-05 02:54:47,15.08846625,0.0001555,53.2183,42.5584,96.931,263.1859,0.00021189,3.086e-05,0.0,0 STARLINK-4522,1 53388U 22097A   24096.12138655  .00003086  00000-0  21189-3 0  9990,2 53388  53.2183  42.5584 0001555  96.9310 263.1859 15.08846625 91800,6917.86,95.437,540.801,538.649,0.0
53388.0,STARLINK-4522,PAYLOAD,2024-04-05 20:24:02,15.08843278,0.0001591,53.2187,39.2872,100.4702,259.6469,0.00024096,3.549e-05,0.0,0 STARLINK-4522,1 53388U 22097A   24096.85002725  .00003549  00000-0  24096-3 0  9992,2 53388  53.2187  39.2872 0001591 100.4702 259.6469 15.08843278 91913,6917.87,95.437,540.836,538.635,0.0
53388.0,STARLINK-4522,PAYLOAD,2024-04-06 02:45:35,15.0883925,0.0001322,53.2173,38.101,83.4502,276.664,4.1653e-05,3.75e-06,0.0,0 STARLINK-4522,1 53388U 22097A   24097.11498869  .00000375  00000-0  41653-4 0  9993,2 53388  53.2173  38.1010 0001322  83.4502 276.6640 15.08839250 92781,6917.883,95.438,540.662,538.833,0.0
53388.0,STARLINK-4522,PAYLOAD,2024-04-06 20:14:49,15.08827233,0.0001345,53.2183,34.8304,87.4087,272.7059,0.00019829,2.868e-05,0.0,0 STARLINK-4522,1 53388U 22097A   24097.84363358  .00002868  00000-0  19829-3 0  9995,2 53388  53.2183  34.8304 0001345  87.4087 272.7059 15.08827233 92068,6917.919,95.438,540.715,538.854,0.0
53388.0,STARLINK-4522,PAYLOAD,2024-04-07 12:08:40,15.08843173,0.0001193,53.219,31.8559,86.5778,273.5351,5.2765e-05,5.52e-06,0.0,0 STARLINK-4522,1 53388U 22097A   24098.50602652  .00000552  00000-0  52765-4 0  9997,2 53388  53.2190  31.8559 0001193  86.5778 273.5351 15.08843173 92990,6917.871,95.437,540.561,538.91,0.0
53388.0,STARLINK-4522,PAYLOAD,2024-04-07 20:05:37,15.08830608,0.0001266,53.222,30.3708,90.4384,269.6753,3.7477e-05,3.09e-06,0.0,0 STARLINK-4522,1 53388U 22097A   24098.83723539  .00000309  00000-0  37477-4 0  9994,2 53388  53.2220  30.3708 0001266  90.4384 269.6753 15.08830608 93040,6917.909,95.438,540.65,538.898,0.0
53388.0,STARLINK-4522,PAYLOAD,2024-04-08 02:27:09,15.08832878,0.0001286,53.221,29.1816,96.1008,264.0131,4.5467e-05,4.36e-06,0.0,0 STARLINK-4522,1 53388U 22097A   24099.10219507  .00000436  00000-0  45467-4 0  9999,2 53388  53.2210  29.1816 0001286  96.1008 264.0131 15.08832878 92255,6917.902,95.438,540.657,538.878,0.0
53388.0,STARLINK-4522,PAYLOAD,2024-04-08 11:59:27,15.08845588,0.0001359,53.2204,27.3948,89.6581,270.4566,0.00011795,1.59e-05,0.0,0 STARLINK-4522,1 53388U 22097A   24099.49962579  .00001590  00000-0  11795-3 0  9993,2 53388  53.2204  27.3948 0001359  89.6581 270.4566 15.08845588 92310,6917.863,95.437,540.668,538.788,0.0
53388.0,STARLINK-4522,PAYLOAD,2024-04-08 19:56:24,15.08834838,0.000184,53.2206,25.909,99.9077,260.2123,7.951e-05,9.77e-06,0.0,0 STARLINK-4522,1 53388U 22097A   24099.83083523  .00000977  00000-0  79510-4 0  9992,2 53388  53.2206  25.9090 0001840  99.9077 260.2123 15.08834838 92360,6917.896,95.438,541.034,538.488,0.0
53388.0,STARLINK-4522,PAYLOAD,2024-04-08 23:07:10,15.08830975,0.0001717,53.2216,25.3156,102.7428,257.3756,4.6195e-05,4.47e-06,0.0,0 STARLINK-4522,1 53388U 22097A   24099.96331899  .00000447  00000-0  46195-4 0  9993,2 53388  53.2216  25.3156 0001717 102.7428 257.3756 15.08830975 93216,6917.908,95.438,540.961,538.585,0.0
53388.0,STARLINK-4522,PAYLOAD,2024-04-09 11:50:15,15.08845195,0.0001582,53.2214,22.9367,89.9253,270.192,8.9372e-05,1.135e-05,0.0,0 STARLINK-4522,1 53388U 22097A   24100.49323021  .00001135  00000-0  89372-4 0  9991,2 53388  53.2214  22.9367 0001582  89.9253 270.1920 15.08845195 92465,6917.865,95.437,540.824,538.635,0.0
53388.0,STARLINK-4522,PAYLOAD,2024-04-09 18:11:47,15.0884487,0.0001867,53.2215,21.747,84.3869,275.7336,8.2216e-05,1.021e-05,0.0,0 STARLINK-4522,1 53388U 22097A   24100.75819142  .00001021  00000-0  82216-4 0  9998,2 53388  53.2215  21.7470 0001867  84.3869 275.7336 15.08844870 93334,6917.866,95.437,541.022,538.439,0.0
53388.0,STARLINK-4522,PAYLOAD,2024-04-10 03:44:06,15.08839898,0.0001688,53.2207,19.961,85.7381,274.3804,6.2433e-05,7.06e-06,0.0,0 STARLINK-4522,1 53388U 22097A   24101.15563632  .00000706  00000-0  62433-4 0  9991,2 53388  53.2207  19.9610 0001688  85.7381 274.3804 15.08839898 92568,6917.881,95.438,540.913,538.578,0.0
53388.0,STARLINK-4522,PAYLOAD,2024-04-10 11:41:02,15.08848903,0.0001684,53.2212,18.475,87.9944,272.1241,6.2454e-05,7.06e-06,0.0,0 STARLINK-4522,1 53388U 22097A   24101.48682894  .00000706  00000-0  62454-4 0  9992,2 53388  53.2212  18.4750 0001684  87.9944 272.1241 15.08848903 92612,6917.853,95.437,540.883,538.553,0.0
53388.0,STARLINK-4522,PAYLOAD,2024-04-11 03:34:54,15.08838412,0.0001385,53.2191,15.5008,86.2764,273.8386,4.2398e-05,3.87e-06,0.0,0 STARLINK-4522,1 53388U 22097A   24102.14923824  .00000387  00000-0  42398-4 0  9997,2 53388  53.2191  15.5008 0001385  86.2764 273.8386 15.08838412 92715,6917.885,95.438,540.708,538.792,0.0
53388.0,STARLINK-4522,PAYLOAD,2024-04-11 11:31:49,15.08850675,0.0001373,53.2192,14.012,88.0161,272.0989,9.2252e-05,1.181e-05,0.0,0 STARLINK-4522,1 53388U 22097A   24102.48042841  .00001181  00000-0  92252-4 0  9992,2 53388  53.2192  14.0120 0001373  88.0161 272.0989 15.08850675 92763,6917.848,95.437,540.663,538.763,0.0
53388.0,STARLINK-4522,PAYLOAD,2024-04-12 00:14:54,15.08839215,0.0001506,53.2207,11.6363,89.7052,270.4112,6.7038e-05,7.79e-06,0.0,0 STARLINK-4522,1 53388U 22097A   24103.01035706  .00000779  00000-0  67038-4 0  9990,2 53388  53.2207  11.6363 0001506  89.7052 270.4112 15.08839215 92843,6917.883,95.438,540.79,538.706,0.0
53388.0,STARLINK-4522,PAYLOAD,2024-04-12 22:30:18,15.08839059,0.0001248,53.219,7.4711,95.2708,264.8426,0.00016265,2.302e-05,0.0,0 STARLINK-4522,1 53388U 22097A   24103.93771351  .00002302  00000-0  16265-3 0  9993,2 53388  53.2190   7.4711 0001248  95.2708 264.8426 15.08839059 93816,6917.883,95.438,540.612,538.885,0.0
53388.0,STARLINK-4522,PAYLOAD,2024-04-13 00:05:41,15.08844063,0.0001353,53.2195,7.1731,97.3109,262.8037,9.8218e-05,1.276e-05,0.0,0 STARLINK-4522,1 53388U 22097A   24104.00395246  .00001276  00000-0  98218-4 0  9995,2 53388  53.2195   7.1731 0001353  97.3109 262.8037 15.08844063 93823,6917.868,95.437,540.669,538.797,0.0
53388.0,STARLINK-4522,PAYLOAD,2024-04-13 20:45:42,15.08839667,0.0001385,53.2196,3.3071,97.5154,262.5995,0.00010498,1.383e-05,0.0,0 STARLINK-4522,1 53388U 22097A   24104.86507499  .00001383  00000-0  10498-3 0  9996,2 53388  53.2196   3.3071 0001385  97.5154 262.5995 15.08839667 93123,6917.881,95.438,540.705,538.788,0.0
53388.0,STARLINK-4522,PAYLOAD,2024-04-14 22:11:52,15.08838893,0.000131,53.2195,358.55,86.5868,273.5274,6.3426e-05,7.22e-06,0.0,0 STARLINK-4522,1 53388U 22097A   24105.92491808  .00000722  00000-0  63426-4 0  9996,2 53388  53.2195 358.5500 0001310  86.5868 273.5274 15.08838893 94114,6917.884,95.438,540.655,538.843,0.0
53388.0,STARLINK-4522,PAYLOAD,2024-04-15 20:27:16,15.08838187,0.0001387,53.2198,354.3879,105.534,254.5806,9.8124e-05,1.274e-05,0.0,0 STARLINK-4522,1 53388U 22097A   24106.85227868  .00001274  00000-0  98124-4 0  9998,2 53388  53.2198 354.3879 0001387 105.5340 254.5806 15.08838187 94252,6917.886,95.438,540.71,538.791,0.0
53388.0,STARLINK-4522,PAYLOAD,2024-04-15 23:38:03,15.08835844,0.0001841,53.221,353.7988,123.7924,236.3244,9.0981e-05,1.16e-05,0.0,0 STARLINK-4522,1 53388U 22097A   24106.98476079  .00001160  00000-0  90981-4 0  9999,2 53388  53.2210 353.7988 0001841 123.7924 236.3244 15.08835844 93447,6917.893,95.438,541.032,538.485,0.0
53388.0,STARLINK-4522,PAYLOAD,2024-04-16 09:10:20,15.08853578,0.00014,53.2203,352.0095,89.8504,270.2649,0.00023464,3.45e-05,0.0,0 STARLINK-4522,1 53388U 22097A   24107.38218570  .00003450  00000-0  23464-3 0  9999,2 53388  53.2203 352.0095 0001400  89.8504 270.2649 15.08853578 93504,6917.839,95.437,540.672,538.735,0.0
53388.0,STARLINK-4522,PAYLOAD,2024-04-16 20:18:03,15.08843805,0.0002193,53.2194,349.928,86.4611,273.6632,0.00011645,1.566e-05,0.0,0 STARLINK-4522,1 53388U 22097A   24107.84587525  .00001566  00000-0  11645-3 0  9993,2 53388  53.2194 349.9280 0002193  86.4611 273.6632 15.08843805 93574,6917.869,95.437,541.251,538.217,0.0
